NORAD_CAT_ID,OBJECT_NAME,OBJECT_TYPE,EPOCH,MEAN_MOTION,ECCENTRICITY,INCLINATION,RA_OF_ASC_NODE,ARG_OF_PERICENTER,MEAN_ANOMALY,BSTAR,MEAN_MOTION_DOT,MEAN_MOTION_DDOT,TLE_LINE0,TLE_LINE1,TLE_LINE2,SEMIMAJOR_AXIS,PERIOD,APOGEE,PERIGEE,DECAYED
53641.0,STARLINK-4588,PAYLOAD,2024-01-18 13:31:22,15.08837456,0.0001843,53.2169,130.5986,60.5465,299.5711,0.00029581,4.423e-05,0.0,0 STARLINK-4588,1 53641U 22104BF  24018.56345031  .00004423  00000-0  29581-3 0  9991,2 53641  53.2169 130.5986 0001843  60.5465 299.5711 15.08837456 78300,6917.888,95.438,541.028,538.478,0.0
53641.0,STARLINK-4588,PAYLOAD,2024-01-18 15:06:44,15.08847053,0.0001794,53.2175,130.3001,71.6326,288.4861,0.00024015,3.537e-05,0.0,0 STARLINK-4588,1 53641U 22104BF  24018.62968608  .00003537  00000-0  24015-3 0  9991,2 53641  53.2175 130.3001 0001794  71.6326 288.4861 15.08847053 78315,6917.859,95.437,540.965,538.483,0.0
53641.0,STARLINK-4588,PAYLOAD,2024-01-19 11:46:45,15.08844443,0.0001696,53.2173,126.4351,68.7589,291.3584,8.4911e-05,1.064e-05,0.0,0 STARLINK-4588,1 53641U 22104BF  24019.49080532  .00001064  00000-0  84911-4 0  9993,2 53641  53.2173 126.4351 0001696  68.7589 291.3584 15.08844443 77422,6917.867,95.437,540.905,538.559,0.0
53641.0,STARLINK-4588,PAYLOAD,2024-01-19 13:22:08,15.08845456,0.0001732,53.2165,126.1377,68.0054,292.1122,8.9585e-05,1.138e-05,0.0,0 STARLINK-4588,1 53641U 22104BF  24019.55704458  .00001138  00000-0  89585-4 0  9994,2 53641  53.2165 126.1377 0001732  68.0054 292.1122 15.08845456 78455,6917.864,95.437,540.927,538.531,0.0
53641.0,STARLINK-4588,PAYLOAD,2024-01-20 13:12:55,15.08845573,0.0001665,53.2184,121.6753,94.5994,265.5188,-2.1338e-06,-3.22e-06,0.0,0 STARLINK-4588,1 53641U 22104BF  24020.55064444 -.00000322  00000-0 -21338-5 0  9999,2 53641  53.2184 121.6753 0001665  94.5994 265.5188 15.08845573 78609,6917.863,95.437,540.88,538.577,0.0
53641.0,STARLINK-4588,PAYLOAD,2024-01-21 06:42:10,15.08839266,0.0001697,53.218,118.4021,105.5944,254.5236,-1.0447e-05,-4.54e-06,0.0,0 STARLINK-4588,1 53641U 22104BF  24021.27928933 -.00000454  00000-0 -10447-4 0  9995,2 53641  53.2180 118.4021 0001697 105.5944 254.5236 15.08839266 78716,6917.883,95.438,540.922,538.574,0.0
53641.0,STARLINK-4588,PAYLOAD,2024-01-21 13:03:43,15.08839167,0.0001559,53.2181,117.214,99.7044,260.4125,-6.088e-06,-3.85e-06,0.0,0 STARLINK-4588,1 53641U 22104BF  24021.54424878 -.00000385  00000-0 -60880-5 0  9994,2 53641  53.2181 117.2140 0001559  99.7044 260.4125 15.08839167 77732,6917.883,95.438,540.826,538.669,0.0
53641.0,STARLINK-4588,PAYLOAD,2024-01-22 06:32:57,15.08836899,0.0001557,53.2184,113.9439,97.8419,262.275,7.4157e-05,8.92e-06,0.0,0 STARLINK-4588,1 53641U 22104BF  24022.27288964  .00000892  00000-0  74157-4 0  9991,2 53641  53.2184 113.9439 0001557  97.8419 262.2750 15.08836899 78860,6917.89,95.438,540.832,538.678,0.0
53641.0,STARLINK-4588,PAYLOAD,2024-01-22 12:54:30,15.08818375,0.0001766,53.2186,112.7553,108.256,251.8624,0.00050113,7.692e-05,0.0,0 STARLINK-4588,1 53641U 22104BF  24022.53784963  .00007692  00000-0  50113-3 0  9990,2 53641  53.2186 112.7553 0001766 108.2560 251.8624 15.08818375 77886,6917.946,95.439,541.033,538.59,0.0
53641.0,STARLINK-4588,PAYLOAD,2024-01-23 11:09:54,15.08838783,0.0001595,53.2175,108.5891,98.9826,261.1346,7.6773e-05,9.34e-06,0.0,0 STARLINK-4588,1 53641U 22104BF  24023.46521041  .00000934  00000-0  76773-4 0  9992,2 53641  53.2175 108.5891 0001595  98.9826 261.1346 15.08838783 79042,6917.884,95.438,540.853,538.646,0.0
53641.0,STARLINK-4588,PAYLOAD,2024-01-24 11:00:41,15.08839624,0.0001775,53.2172,104.1285,101.3764,258.7428,-4.165e-05,-9.51e-06,0.0,0 STARLINK-4588,1 53641U 22104BF  24024.45881634 -.00000951  00000-0 -41650-4 0  9996,2 53641  53.2172 104.1285 0001775 101.3764 258.7428 15.08839624 78179,6917.882,95.438,540.974,538.519,0.0
53641.0,STARLINK-4588,PAYLOAD,2024-01-24 12:36:04,15.08839444,0.00015,53.2166,103.832,88.0055,272.1109,-4.1245e-06,-3.54e-06,0.0,0 STARLINK-4588,1 53641U 22104BF  24024.52505607 -.00000354  00000-0 -41245-5 0  9995,2 53641  53.2166 103.8320 0001500  88.0055 272.1109 15.08839444 79209,6917.882,95.438,540.785,538.709,0.0
53641.0,STARLINK-4588,PAYLOAD,2024-01-24 15:46:50,15.08843385,0.0001489,53.2171,103.235,77.6089,282.507,2.9899e-05,1.88e-06,0.0,0 STARLINK-4588,1 53641U 22104BF  24024.65753290  .00000188  00000-0  29899-4 0  9995,2 53641  53.2171 103.2350 0001489  77.6089 282.5070 15.08843385 79222,6917.87,95.437,540.765,538.705,0.0
53641.0,STARLINK-4588,PAYLOAD,2024-01-25 12:26:52,15.08836692,0.0001926,53.2177,99.3725,73.5537,286.5667,7.9622e-05,9.79e-06,0.0,0 STARLINK-4588,1 53641U 22104BF  24025.51865960  .00000979  00000-0  79622-4 0  9996,2 53641  53.2177  99.3725 0001926  73.5537 286.5667 15.08836692 79351,6917.891,95.438,541.088,538.423,0.0
53641.0,STARLINK-4588,PAYLOAD,2024-01-26 12:17:38,15.08843749,0.000205,53.2184,94.9094,61.876,298.2439,0.00013563,1.871e-05,0.0,0 STARLINK-4588,1 53641U 22104BF  24026.51225527  .00001871  00000-0  13563-3 0  9999,2 53641  53.2184  94.9094 0002050  61.8760 298.2439 15.08843749 79501,6917.869,95.437,541.152,538.316,0.0
53641.0,STARLINK-4588,PAYLOAD,2024-01-27 10:33:03,15.08843247,0.0001996,53.2187,90.7467,71.8306,288.2904,8.6122e-06,-1.51e-06,0.0,0 STARLINK-4588,1 53641U 22104BF  24027.43961939 -.00000151  00000-0  86122-5 0  9999,2 53641  53.2187  90.7467 0001996  71.8306 288.2904 15.08843247 78628,6917.87,95.437,541.116,538.355,0.0
53641.0,STARLINK-4588,PAYLOAD,2024-01-27 13:43:49,15.08845823,0.0002019,53.219,90.1471,67.5335,292.587,3.2785e-05,2.34e-06,0.0,0 STARLINK-4588,1 53641U 22104BF  24027.57209592  .00000234  00000-0  32785-4 0  9990,2 53641  53.2190  90.1471 0002019  67.5335 292.5870 15.08845823 79669,6917.863,95.437,541.124,538.331,0.0
53641.0,STARLINK-4588,PAYLOAD,2024-01-28 13:34:36,15.08840166,0.000165,53.2176,85.6869,81.0404,279.0775,-5.7936e-05,-1.21e-05,0.0,0 STARLINK-4588,1 53641U 22104BF  24028.56570068 -.00001210  00000-0 -57936-4 0  9991,2 53641  53.2176  85.6869 0001650  81.0404 279.0775 15.08840166 79817,6917.88,95.438,540.886,538.603,0.0
53641.0,STARLINK-4588,PAYLOAD,2024-01-29 10:14:36,15.08848421,0.0001781,53.2184,81.8224,98.6095,261.5099,0.00011257,1.504e-05,0.0,0 STARLINK-4588,1 53641U 22104BF  24029.42680823  .00001504  00000-0  11257-3 0  9997,2 53641  53.2184  81.8224 0001781  98.6095 261.5099 15.08848421 78922,6917.855,95.437,540.952,538.488,0.0
53641.0,STARLINK-4588,PAYLOAD,2024-01-30 08:30:00,15.08838335,0.0001766,53.218,77.6622,111.9582,248.1598,1.282e-05,-8.4e-07,0.0,0 STARLINK-4588,1 53641U 22104BF  24030.35417822 -.00000084  00000-0  12820-4 0  9999,2 53641  53.2180  77.6622 0001766 111.9582 248.1598 15.08838335 79060,6917.885,95.438,540.972,538.529,0.0
53641.0,STARLINK-4588,PAYLOAD,2024-01-31 09:56:11,15.08797891,0.0002083,53.2181,72.9053,105.9265,254.1957,0.00053571,8.238e-05,0.0,0 STARLINK-4588,1 53641U 22104BF  24031.41402735  .00008238  00000-0  53571-3 0  9999,2 53641  53.2181  72.9053 0002083 105.9265 254.1957 15.08797891 79226,6918.009,95.44,541.315,538.433,0.0
53641.0,STARLINK-4588,PAYLOAD,2024-02-01 11:22:21,15.0883692,0.0001707,53.218,68.1449,84.4624,275.6563,5.4618e-05,5.81e-06,0.0,0 STARLINK-4588,1 53641U 22104BF  24032.47386359  .00000581  00000-0  54618-4 0  9996,2 53641  53.2180  68.1449 0001707  84.4624 275.6563 15.08836920 79388,6917.89,95.438,540.936,538.574,0.0
53641.0,STARLINK-4588,PAYLOAD,2024-02-02 09:37:45,15.08843377,0.000177,53.2183,63.9813,79.4641,280.6551,0.00010525,1.388e-05,0.0,0 STARLINK-4588,1 53641U 22104BF  24033.40121930  .00001388  00000-0  10525-3 0  9996,2 53641  53.2183  63.9813 0001770  79.4641 280.6551 15.08843377 80549,6917.87,95.437,540.96,538.511,0.0
53641.0,STARLINK-4588,PAYLOAD,2024-02-03 11:03:56,15.08839835,0.0001784,53.2189,59.223,77.992,282.1272,2.3705e-05,8.9e-07,0.0,0 STARLINK-4588,1 53641U 22104BF  24034.46106636  .00000089  00000-0  23705-4 0  9991,2 53641  53.2189  59.2230 0001784  77.9920 282.1272 15.08839835 79688,6917.881,95.438,540.98,538.512,0.0
53641.0,STARLINK-4588,PAYLOAD,2024-02-03 19:00:51,15.08841886,0.0001646,53.2183,57.7391,86.8905,273.2276,2.4339e-05,9.9e-07,0.0,0 STARLINK-4588,1 53641U 22104BF  24034.79226421  .00000099  00000-0  24339-4 0  9997,2 53641  53.2183  57.7391 0001646  86.8905 273.2276 15.08841886 80756,6917.875,95.437,540.878,538.601,0.0
53641.0,STARLINK-4588,PAYLOAD,2024-02-04 01:22:24,15.08857649,0.000175,53.2187,56.5495,89.2577,270.8616,-0.00015021,-2.679e-05,0.0,0 STARLINK-4588,1 53641U 22104BF  24035.05722303 -.00002679  00000-0 -15021-3 0  9992,2 53641  53.2187  56.5495 0001750  89.2577 270.8616 15.08857649 79775,6917.826,95.436,540.902,538.481,0.0
53641.0,STARLINK-4588,PAYLOAD,2024-02-04 07:43:56,15.08854167,0.0001652,53.2178,55.3612,86.0179,274.1002,9.6301e-06,-1.35e-06,0.0,0 STARLINK-4588,1 53641U 22104BF  24035.32217678 -.00000135  00000-0  96301-5 0  9992,2 53641  53.2178  55.3612 0001652  86.0179 274.1002 15.08854167 80834,6917.837,95.437,540.845,538.559,0.0
53641.0,STARLINK-4588,PAYLOAD,2024-02-05 04:23:57,15.08839785,0.0001714,53.2171,51.4964,78.9951,281.1234,2.3174e-05,8.1e-07,0.0,0 STARLINK-4588,1 53641U 22104BF  24036.18330455  .00000081  00000-0  23174-4 0  9992,2 53641  53.2171  51.4964 0001714  78.9951 281.1234 15.08839785 79945,6917.881,95.438,540.932,538.56,0.0
53641.0,STARLINK-4588,PAYLOAD,2024-02-05 07:34:43,15.08840746,0.0001561,53.2166,50.8985,98.2106,261.9063,5.3562e-05,5.65e-06,0.0,0 STARLINK-4588,1 53641U 22104BF  24036.31578158  .00000565  00000-0  53562-4 0  9992,2 53641  53.2166  50.8985 0001561  98.2106 261.9063 15.08840746 80983,6917.878,95.438,540.823,538.663,0.0
53641.0,STARLINK-4588,PAYLOAD,2024-02-06 07:25:30,15.08839194,0.000181,53.218,46.4414,101.045,259.0746,-1.4476e-05,-5.18e-06,0.0,0 STARLINK-4588,1 53641U 22104BF  24037.30938615 -.00000518  00000-0 -14476-4 0  9991,2 53641  53.2180  46.4414 0001810 101.0450 259.0746 15.08839194 80115,6917.883,95.438,541.0,538.496,0.0
